{
  "type": "FeatureCollection",
  "features": [
    {
      "type": "Feature",
      "properties": {
        "norad_id": 35585,
        "name": "COSMOS 2251 DEB",
        "group": "cosmos-2251-debris",
        "lat": 21.540912838748785,
        "lon": -24.552091918654096,
        "alt_km": 1161.6078152243153,
        "timestamp": "2025-12-24T09:46:31.401301+00:00",
        "meta_object_name": "COSMOS 2251 DEB",
        "meta_object_id": "1993-036AMC",
        "meta_epoch": "2025-12-21T09:07:18.442848",
        "meta_mean_motion": 13.75269672,
        "meta_eccentricity": 0.03103986,
        "meta_inclination": 73.9717,
        "meta_ra_of_asc_node": 333.9847,
        "meta_arg_of_pericenter": 244.5384,
        "meta_mean_anomaly": 273.7703,
        "meta_ephemeris_type": 0,
        "meta_classification_type": "U",
        "meta_norad_cat_id": 35585,
        "meta_element_set_no": 999,
        "meta_rev_at_epoch": 64182,
        "meta_bstar": 0.00073727274,
        "meta_mean_motion_dot": 9.8e-06,
        "meta_mean_motion_ddot": 0,
        "tle_line1": "1 35585U 93036AMC 25355.38007457  .00000980  00000+0  73727-3 0  9996",
        "tle_line2": "2 35585  73.9717 333.9847 0310398 244.5384 273.7703 13.75269672641821"
      },
      "geometry": {
        "type": "Point",
        "coordinates": [
          -24.552091918654096,
          21.540912838748785
        ]
      }
    },
    {
      "type": "Feature",
      "properties": {
        "norad_id": 35586,
        "name": "COSMOS 2251 DEB",
        "group": "cosmos-2251-debris",
        "lat": -40.23804953541037,
        "lon": -90.24765072464449,
        "alt_km": 1354.3193897426709,
        "timestamp": "2025-12-24T09:46:31.401314+00:00",
        "meta_object_name": "COSMOS 2251 DEB",
        "meta_object_id": "1993-036AMD",
        "meta_epoch": "2025-12-23T04:09:08.280864",
        "meta_mean_motion": 13.52091848,
        "meta_eccentricity": 0.04042541,
        "meta_inclination": 74.0191,
        "meta_ra_of_asc_node": 285.7624,
        "meta_arg_of_pericenter": 158.8543,
        "meta_mean_anomaly": 271.7414,
        "meta_ephemeris_type": 0,
        "meta_classification_type": "U",
        "meta_norad_cat_id": 35586,
        "meta_element_set_no": 999,
        "meta_rev_at_epoch": 60523,
        "meta_bstar": 0.000355474,
        "meta_mean_motion_dot": 3.71e-06,
        "meta_mean_motion_ddot": 0,
        "tle_line1": "1 35586U 93036AMD 25357.17301251  .00000371  00000+0  35547-3 0  9997",
        "tle_line2": "2 35586  74.0191 285.7624 0404254 158.8543 271.7414 13.52091848605231"
      },
      "geometry": {
        "type": "Point",
        "coordinates": [
          -90.24765072464449,
          -40.23804953541037
        ]
      }
    },
    {
      "type": "Feature",
      "properties": {
        "norad_id": 35587,
        "name": "COSMOS 2251 DEB",
        "group": "cosmos-2251-debris",
        "lat": 22.409339170112744,
        "lon": -151.08991767216125,
        "alt_km": 623.4906471137429,
        "timestamp": "2025-12-24T09:46:31.401325+00:00",
        "meta_object_name": "COSMOS 2251 DEB",
        "meta_object_id": "1993-036AME",
        "meta_epoch": "2025-12-21T20:41:18.597984",
        "meta_mean_motion": 14.71550847,
        "meta_eccentricity": 0.01023219,
        "meta_inclination": 74.0051,
        "meta_ra_of_asc_node": 40.6582,
        "meta_arg_of_pericenter": 226.293,
        "meta_mean_anomaly": 132.9734,
        "meta_ephemeris_type": 0,
        "meta_classification_type": "U",
        "meta_norad_cat_id": 35587,
        "meta_element_set_no": 999,
        "meta_rev_at_epoch": 66480,
        "meta_bstar": 0.00023978572,
        "meta_mean_motion_dot": 1.58e-05,
        "meta_mean_motion_ddot": 0,
        "tle_line1": "1 35587U 93036AME 25355.86202081  .00001580  00000+0  23979-3 0  9992",
        "tle_line2": "2 35587  74.0051  40.6582 0102321 226.2930 132.9734 14.71550847664800"
      },
      "geometry": {
        "type": "Point",
        "coordinates": [
          -151.08991767216125,
          22.409339170112744
        ]
      }
    },
    {
      "type": "Feature",
      "properties": {
        "norad_id": 35593,
        "name": "COSMOS 2251 DEB",
        "group": "cosmos-2251-debris",
        "lat": 18.183403525300765,
        "lon": 82.07151000296776,
        "alt_km": 831.880887128219,
        "timestamp": "2025-12-24T09:46:31.401335+00:00",
        "meta_object_name": "COSMOS 2251 DEB",
        "meta_object_id": "1993-036AML",
        "meta_epoch": "2025-12-24T00:35:28.875264",
        "meta_mean_motion": 14.2563583,
        "meta_eccentricity": 0.0105068,
        "meta_inclination": 74.0857,
        "meta_ra_of_asc_node": 268.1373,
        "meta_arg_of_pericenter": 272.0988,
        "meta_mean_anomaly": 86.8131,
        "meta_ephemeris_type": 0,
        "meta_classification_type": "U",
        "meta_norad_cat_id": 35593,
        "meta_element_set_no": 999,
        "meta_rev_at_epoch": 85226,
        "meta_bstar": 0.00070262,
        "meta_mean_motion_dot": 1.738e-05,
        "meta_mean_motion_ddot": 0,
        "tle_line1": "1 35593U 93036AML 25358.02463976  .00001738  00000+0  70262-3 0  9994",
        "tle_line2": "2 35593  74.0857 268.1373 0105068 272.0988  86.8131 14.25635830852261"
      },
      "geometry": {
        "type": "Point",
        "coordinates": [
          82.07151000296776,
          18.183403525300765
        ]
      }
    },
    {
      "type": "Feature",
      "properties": {
        "norad_id": 35594,
        "name": "COSMOS 2251 DEB",
        "group": "cosmos-2251-debris",
        "lat": -26.51332310860189,
        "lon": -88.7256183054488,
        "alt_km": 588.88169919559,
        "timestamp": "2025-12-24T09:46:31.401346+00:00",
        "meta_object_name": "COSMOS 2251 DEB",
        "meta_object_id": "1993-036AMM",
        "meta_epoch": "2025-12-21T13:05:05.165088",
        "meta_mean_motion": 14.8817141,
        "meta_eccentricity": 0.0029279,
        "meta_inclination": 73.8068,
        "meta_ra_of_asc_node": 88.7269,
        "meta_arg_of_pericenter": 201.0189,
        "meta_mean_anomaly": 158.9789,
        "meta_ephemeris_type": 0,
        "meta_classification_type": "U",
        "meta_norad_cat_id": 35594,
        "meta_element_set_no": 999,
        "meta_rev_at_epoch": 88316,
        "meta_bstar": 0.0013268,
        "meta_mean_motion_dot": 0.00012311,
        "meta_mean_motion_ddot": 0,
        "tle_line1": "1 35594U 93036AMM 25355.54519867  .00012311  00000+0  13268-2 0  9991",
        "tle_line2": "2 35594  73.8068  88.7269 0029279 201.0189 158.9789 14.88171410883168"
      },
      "geometry": {
        "type": "Point",
        "coordinates": [
          -88.7256183054488,
          -26.51332310860189
        ]
      }
    },
    {
      "type": "Feature",
      "properties": {
        "norad_id": 35602,
        "name": "COSMOS 2251 DEB",
        "group": "cosmos-2251-debris",
        "lat": 41.09153508905065,
        "lon": -37.387162576495,
        "alt_km": 448.30442558321647,
        "timestamp": "2025-12-24T09:46:31.401357+00:00",
        "meta_object_name": "COSMOS 2251 DEB",
        "meta_object_id": "1993-036AMV",
        "meta_epoch": "2025-12-21T22:26:51.012096",
        "meta_mean_motion": 15.35414257,
        "meta_eccentricity": 0.00887347,
        "meta_inclination": 73.9929,
        "meta_ra_of_asc_node": 162.4295,
        "meta_arg_of_pericenter": 226.1697,
        "meta_mean_anomaly": 293.1785,
        "meta_ephemeris_type": 0,
        "meta_classification_type": "U",
        "meta_norad_cat_id": 35602,
        "meta_element_set_no": 999,
        "meta_rev_at_epoch": 90232,
        "meta_bstar": 0.00057034705,
        "meta_mean_motion_dot": 0.00022374,
        "meta_mean_motion_ddot": 0,
        "tle_line1": "1 35602U 93036AMV 25355.93531264  .00022374  00000+0  57035-3 0  9990",
        "tle_line2": "2 35602  73.9929 162.4295 0088734 226.1697 293.1785 15.35414257902327"
      },
      "geometry": {
        "type": "Point",
        "coordinates": [
          -37.387162576495,
          41.09153508905065
        ]
      }
    },
    {
      "type": "Feature",
      "properties": {
        "norad_id": 35605,
        "name": "COSMOS 2251 DEB",
        "group": "cosmos-2251-debris",
        "lat": -54.16112617454229,
        "lon": 154.90523181744655,
        "alt_km": 440.0406865856912,
        "timestamp": "2025-12-24T09:46:31.401367+00:00",
        "meta_object_name": "COSMOS 2251 DEB",
        "meta_object_id": "1993-036AMY",
        "meta_epoch": "2025-12-22T14:36:44.008416",
        "meta_mean_motion": 15.38179315,
        "meta_eccentricity": 0.00228045,
        "meta_inclination": 73.869,
        "meta_ra_of_asc_node": 315.1978,
        "meta_arg_of_pericenter": 235.9327,
        "meta_mean_anomaly": 123.9715,
        "meta_ephemeris_type": 0,
        "meta_classification_type": "U",
        "meta_norad_cat_id": 35605,
        "meta_element_set_no": 999,
        "meta_rev_at_epoch": 66123,
        "meta_bstar": 0.0066900453,
        "meta_mean_motion_dot": 0.00262511,
        "meta_mean_motion_ddot": 0,
        "tle_line1": "1 35605U 93036AMY 25356.60884269  .00262511  00000+0  66900-2 0  9993",
        "tle_line2": "2 35605  73.8690 315.1978 0022804 235.9327 123.9715 15.38179315661234"
      },
      "geometry": {
        "type": "Point",
        "coordinates": [
          154.90523181744655,
          -54.16112617454229
        ]
      }
    }
  ]
}